[{"OBJECT_NAME":"STARLINK-4684","OBJECT_ID":"2022-104H","EPOCH":"2026-03-09T17:58:49.659168","MEAN_MOTION":15.08843486,"ECCENTRICITY":0.00013157,"INCLINATION":53.2166,"RA_OF_ASC_NODE":243.8654,"ARG_OF_PERICENTER":93.7758,"MEAN_ANOMALY":266.3384,"EPHEMERIS_TYPE":0,"CLASSIFICATION_TYPE":"U","NORAD_CAT_ID":53595,"ELEMENT_SET_NO":999,"REV_AT_EPOCH":19595,"BSTAR":2.683072e-5,"MEAN_MOTION_DOT":1.39e-6,"MEAN_MOTION_DDOT":0},{"OBJECT_NAME":"YUNYAO-1 47","OBJECT_ID":"2025-059E","EPOCH":"2026-03-09T22:46:15.708288","MEAN_MOTION":15.10508558,"ECCENTRICITY":0.00172664,"INCLINATION":97.6066,"RA_OF_ASC_NODE":250.9227,"ARG_OF_PERICENTER":135.6694,"MEAN_ANOMALY":224.5922,"EPHEMERIS_TYPE":0,"CLASSIFICATION_TYPE":"U","NORAD_CAT_ID":63348,"ELEMENT_SET_NO":999,"REV_AT_EPOCH":5331,"BSTAR":0.00029014568,"MEAN_MOTION_DOT":4.732e-5,"MEAN_MOTION_DDOT":0}]
